SOSO-3
1 00003U          23274.66666667  .00000000  00000-0  00000-0 0 00003
2 00003 097.4153 167.6514 0009336 322.4617 181.5409 15.20925385000019
